ORBCOMM FM33 [-]        
1 25983U 99065D   23261.93119780  .00001402  00000+0  51878-3 0  9996
2 25983  45.0290 140.1649 0008656  94.5419 279.6187 14.36722158244325
ORBCOMM FM36 [-]        
1 25984U 99065E   23261.68940079  .00001480  00000+0  56865-3 0  9999
2 25984  45.0395 222.7648 0005222 327.9198  32.1331 14.34606740242777
ORBCOMM FM35 [+]        
1 25985U 99065F   23261.74423630  .00001446  00000+0  56000-3 0  9999
2 25985  45.0394 224.5320 0001687  52.9366 307.1635 14.34317433243183
ORBCOMM FM34 [-]        
1 25986U 99065G   23261.70734095  .00001420  00000+0  55136-3 0  9997
2 25986  45.0389 225.1699 0004141   2.5438 357.5430 14.34259589243294
ORBCOMM FM38 [-]        
1 33060U 08031A   23261.84761732  .00002650  00000+0  41032-3 0  9991
2 33060  48.4405  99.0261 0005906 192.9520 167.1242 14.76000943820449
ORBCOMM FM41 [-]        
1 33061U 08031B   23261.85561772  .00002327  00000+0  36576-3 0  9993
2 33061  48.4441 105.0894 0004945 180.4944 193.5908 14.75771090819957
ORBCOMM FM29 [-]        
1 33062U 08031C   23261.89598199  .00002437  00000+0  38278-3 0  9994
2 33062  48.4394 112.8665 0006813 177.2482 196.2746 14.75645333819875
ORBCOMM FM39 [-]        
1 33063U 08031D   23261.85050447  .00002354  00000+0  37780-3 0  9995
2 33063  48.4404 131.9918 0007540 153.4277 206.7023 14.74820102819588
