<?xml version="1.0" encoding="UTF-8"?>
<ndm xmlns:xsi="http://www.w3.org/2001/XMLSchema-instance" xsi:noNamespaceSchemaLocation="https://sanaregistry.org/r/ndmxml_unqualified/ndmxml-2.0.0-master-2.0.xsd">
<omm id="CCSDS_OMM_VERS" version="2.0">
<header><CREATION_DATE/><ORIGINATOR/></header><body><segment><metadata><OBJECT_NAME>ORBCOMM FM33 [-]</OBJECT_NAME><OBJECT_ID>1999-065D</OBJECT_ID><CENTER_NAME>EARTH</CENTER_NAME><REF_FRAME>TEME</REF_FRAME><TIME_SYSTEM>UTC</TIME_SYSTEM><MEAN_ELEMENT_THEORY>SGP4</MEAN_ELEMENT_THEORY></metadata><data><meanElements><EPOCH>2023-09-18T22:20:55.489920</EPOCH><MEAN_MOTION>14.36722158</MEAN_MOTION><ECCENTRICITY>.0008656</ECCENTRICITY><INCLINATION>45.0290</INCLINATION><RA_OF_ASC_NODE>140.1649</RA_OF_ASC_NODE><ARG_OF_PERICENTER>94.5419</ARG_OF_PERICENTER><MEAN_ANOMALY>279.6187</MEAN_ANOMALY></meanElements><tleParameters><EPHEMERIS_TYPE>0</EPHEMERIS_TYPE><CLASSIFICATION_TYPE>U</CLASSIFICATION_TYPE><NORAD_CAT_ID>25983</NORAD_CAT_ID><ELEMENT_SET_NO>999</ELEMENT_SET_NO><REV_AT_EPOCH>24432</REV_AT_EPOCH><BSTAR>.51878E-3</BSTAR><MEAN_MOTION_DOT>.1402E-4</MEAN_MOTION_DOT><MEAN_MOTION_DDOT>0</MEAN_MOTION_DDOT></tleParameters></data></segment></body></omm>
<omm id="CCSDS_OMM_VERS" version="2.0">
<header><CREATION_DATE/><ORIGINATOR/></header><body><segment><metadata><OBJECT_NAME>ORBCOMM FM36 [-]</OBJECT_NAME><OBJECT_ID>1999-065E</OBJECT_ID><CENTER_NAME>EARTH</CENTER_NAME><REF_FRAME>TEME</REF_FRAME><TIME_SYSTEM>UTC</TIME_SYSTEM><MEAN_ELEMENT_THEORY>SGP4</MEAN_ELEMENT_THEORY></metadata><data><meanElements><EPOCH>2023-09-18T16:32:44.228256</EPOCH><MEAN_MOTION>14.34606740</MEAN_MOTION><ECCENTRICITY>.0005222</ECCENTRICITY><INCLINATION>45.0395</INCLINATION><RA_OF_ASC_NODE>222.7648</RA_OF_ASC_NODE><ARG_OF_PERICENTER>327.9198</ARG_OF_PERICENTER><MEAN_ANOMALY>32.1331</MEAN_ANOMALY></meanElements><tleParameters><EPHEMERIS_TYPE>0</EPHEMERIS_TYPE><CLASSIFICATION_TYPE>U</CLASSIFICATION_TYPE><NORAD_CAT_ID>25984</NORAD_CAT_ID><ELEMENT_SET_NO>999</ELEMENT_SET_NO><REV_AT_EPOCH>24277</REV_AT_EPOCH><BSTAR>.56865E-3</BSTAR><MEAN_MOTION_DOT>.148E-4</MEAN_MOTION_DOT><MEAN_MOTION_DDOT>0</MEAN_MOTION_DDOT></tleParameters></data></segment></body></omm>
<omm id="CCSDS_OMM_VERS" version="2.0">
<header><CREATION_DATE/><ORIGINATOR/></header><body><segment><metadata><OBJECT_NAME>ORBCOMM FM35 [+]</OBJECT_NAME><OBJECT_ID>1999-065F</OBJECT_ID><CENTER_NAME>EARTH</CENTER_NAME><REF_FRAME>TEME</REF_FRAME><TIME_SYSTEM>UTC</TIME_SYSTEM><MEAN_ELEMENT_THEORY>SGP4</MEAN_ELEMENT_THEORY></metadata><data><meanElements><EPOCH>2023-09-18T17:51:42.016320</EPOCH><MEAN_MOTION>14.34317433</MEAN_MOTION><ECCENTRICITY>.0001687</ECCENTRICITY><INCLINATION>45.0394</INCLINATION><RA_OF_ASC_NODE>224.5320</RA_OF_ASC_NODE><ARG_OF_PERICENTER>52.9366</ARG_OF_PERICENTER><MEAN_ANOMALY>307.1635</MEAN_ANOMALY></meanElements><tleParameters><EPHEMERIS_TYPE>0</EPHEMERIS_TYPE><CLASSIFICATION_TYPE>U</CLASSIFICATION_TYPE><NORAD_CAT_ID>25985</NORAD_CAT_ID><ELEMENT_SET_NO>999</ELEMENT_SET_NO><REV_AT_EPOCH>24318</REV_AT_EPOCH><BSTAR>.56E-3</BSTAR><MEAN_MOTION_DOT>.1446E-4</MEAN_MOTION_DOT><MEAN_MOTION_DDOT>0</MEAN_MOTION_DDOT></tleParameters></data></segment></body></omm>
<omm id="CCSDS_OMM_VERS" version="2.0">
<header><CREATION_DATE/><ORIGINATOR/></header><body><segment><metadata><OBJECT_NAME>ORBCOMM FM34 [-]</OBJECT_NAME><OBJECT_ID>1999-065G</OBJECT_ID><CENTER_NAME>EARTH</CENTER_NAME><REF_FRAME>TEME</REF_FRAME><TIME_SYSTEM>UTC</TIME_SYSTEM><MEAN_ELEMENT_THEORY>SGP4</MEAN_ELEMENT_THEORY></metadata><data><meanElements><EPOCH>2023-09-18T16:58:34.258080</EPOCH><MEAN_MOTION>14.34259589</MEAN_MOTION><ECCENTRICITY>.0004141</ECCENTRICITY><INCLINATION>45.0389</INCLINATION><RA_OF_ASC_NODE>225.1699</RA_OF_ASC_NODE><ARG_OF_PERICENTER>2.5438</ARG_OF_PERICENTER><MEAN_ANOMALY>357.5430</MEAN_ANOMALY></meanElements><tleParameters><EPHEMERIS_TYPE>0</EPHEMERIS_TYPE><CLASSIFICATION_TYPE>U</CLASSIFICATION_TYPE><NORAD_CAT_ID>25986</NORAD_CAT_ID><ELEMENT_SET_NO>999</ELEMENT_SET_NO><REV_AT_EPOCH>24329</REV_AT_EPOCH><BSTAR>.55136E-3</BSTAR><MEAN_MOTION_DOT>.142E-4</MEAN_MOTION_DOT><MEAN_MOTION_DDOT>0</MEAN_MOTION_DDOT></tleParameters></data></segment></body></omm>
<omm id="CCSDS_OMM_VERS" version="2.0">
<header><CREATION_DATE/><ORIGINATOR/></header><body><segment><metadata><OBJECT_NAME>ORBCOMM FM38 [-]</OBJECT_NAME><OBJECT_ID>2008-031A</OBJECT_ID><CENTER_NAME>EARTH</CENTER_NAME><REF_FRAME>TEME</REF_FRAME><TIME_SYSTEM>UTC</TIME_SYSTEM><MEAN_ELEMENT_THEORY>SGP4</MEAN_ELEMENT_THEORY></metadata><data><meanElements><EPOCH>2023-09-18T20:20:34.136448</EPOCH><MEAN_MOTION>14.76000943</MEAN_MOTION><ECCENTRICITY>.0005906</ECCENTRICITY><INCLINATION>48.4405</INCLINATION><RA_OF_ASC_NODE>99.0261</RA_OF_ASC_NODE><ARG_OF_PERICENTER>192.9520</ARG_OF_PERICENTER><MEAN_ANOMALY>167.1242</MEAN_ANOMALY></meanElements><tleParameters><EPHEMERIS_TYPE>0</EPHEMERIS_TYPE><CLASSIFICATION_TYPE>U</CLASSIFICATION_TYPE><NORAD_CAT_ID>33060</NORAD_CAT_ID><ELEMENT_SET_NO>999</ELEMENT_SET_NO><REV_AT_EPOCH>82044</REV_AT_EPOCH><BSTAR>.41032E-3</BSTAR><MEAN_MOTION_DOT>.265E-4</MEAN_MOTION_DOT><MEAN_MOTION_DDOT>0</MEAN_MOTION_DDOT></tleParameters></data></segment></body></omm>
<omm id="CCSDS_OMM_VERS" version="2.0">
<header><CREATION_DATE/><ORIGINATOR/></header><body><segment><metadata><OBJECT_NAME>ORBCOMM FM41 [-]</OBJECT_NAME><OBJECT_ID>2008-031B</OBJECT_ID><CENTER_NAME>EARTH</CENTER_NAME><REF_FRAME>TEME</REF_FRAME><TIME_SYSTEM>UTC</TIME_SYSTEM><MEAN_ELEMENT_THEORY>SGP4</MEAN_ELEMENT_THEORY></metadata><data><meanElements><EPOCH>2023-09-18T20:32:05.371008</EPOCH><MEAN_MOTION>14.75771090</MEAN_MOTION><ECCENTRICITY>.0004945</ECCENTRICITY><INCLINATION>48.4441</INCLINATION><RA_OF_ASC_NODE>105.0894</RA_OF_ASC_NODE><ARG_OF_PERICENTER>180.4944</ARG_OF_PERICENTER><MEAN_ANOMALY>193.5908</MEAN_ANOMALY></meanElements><tleParameters><EPHEMERIS_TYPE>0</EPHEMERIS_TYPE><CLASSIFICATION_TYPE>U</CLASSIFICATION_TYPE><NORAD_CAT_ID>33061</NORAD_CAT_ID><ELEMENT_SET_NO>999</ELEMENT_SET_NO><REV_AT_EPOCH>81995</REV_AT_EPOCH><BSTAR>.36576E-3</BSTAR><MEAN_MOTION_DOT>.2327E-4</MEAN_MOTION_DOT><MEAN_MOTION_DDOT>0</MEAN_MOTION_DDOT></tleParameters></data></segment></body></omm>
<omm id="CCSDS_OMM_VERS" version="2.0">
<header><CREATION_DATE/><ORIGINATOR/></header><body><segment><metadata><OBJECT_NAME>ORBCOMM FM29 [-]</OBJECT_NAME><OBJECT_ID>2008-031C</OBJECT_ID><CENTER_NAME>EARTH</CENTER_NAME><REF_FRAME>TEME</REF_FRAME><TIME_SYSTEM>UTC</TIME_SYSTEM><MEAN_ELEMENT_THEORY>SGP4</MEAN_ELEMENT_THEORY></metadata><data><meanElements><EPOCH>2023-09-18T21:30:12.843936</EPOCH><MEAN_MOTION>14.75645333</MEAN_MOTION><ECCENTRICITY>.0006813</ECCENTRICITY><INCLINATION>48.4394</INCLINATION><RA_OF_ASC_NODE>112.8665</RA_OF_ASC_NODE><ARG_OF_PERICENTER>177.2482</ARG_OF_PERICENTER><MEAN_ANOMALY>196.2746</MEAN_ANOMALY></meanElements><tleParameters><EPHEMERIS_TYPE>0</EPHEMERIS_TYPE><CLASSIFICATION_TYPE>U</CLASSIFICATION_TYPE><NORAD_CAT_ID>33062</NORAD_CAT_ID><ELEMENT_SET_NO>999</ELEMENT_SET_NO><REV_AT_EPOCH>81987</REV_AT_EPOCH><BSTAR>.38278E-3</BSTAR><MEAN_MOTION_DOT>.2437E-4</MEAN_MOTION_DOT><MEAN_MOTION_DDOT>0</MEAN_MOTION_DDOT></tleParameters></data></segment></body></omm>
<omm id="CCSDS_OMM_VERS" version="2.0">
<header><CREATION_DATE/><ORIGINATOR/></header><body><segment><metadata><OBJECT_NAME>ORBCOMM FM39 [-]</OBJECT_NAME><OBJECT_ID>2008-031D</OBJECT_ID><CENTER_NAME>EARTH</CENTER_NAME><REF_FRAME>TEME</REF_FRAME><TIME_SYSTEM>UTC</TIME_SYSTEM><MEAN_ELEMENT_THEORY>SGP4</MEAN_ELEMENT_THEORY></metadata><data><meanElements><EPOCH>2023-09-18T20:24:43.586208</EPOCH><MEAN_MOTION>14.74820102</MEAN_MOTION><ECCENTRICITY>.000754</ECCENTRICITY><INCLINATION>48.4404</INCLINATION><RA_OF_ASC_NODE>131.9918</RA_OF_ASC_NODE><ARG_OF_PERICENTER>153.4277</ARG_OF_PERICENTER><MEAN_ANOMALY>206.7023</MEAN_ANOMALY></meanElements><tleParameters><EPHEMERIS_TYPE>0</EPHEMERIS_TYPE><CLASSIFICATION_TYPE>U</CLASSIFICATION_TYPE><NORAD_CAT_ID>33063</NORAD_CAT_ID><ELEMENT_SET_NO>999</ELEMENT_SET_NO><REV_AT_EPOCH>81958</REV_AT_EPOCH><BSTAR>.3778E-3</BSTAR><MEAN_MOTION_DOT>.2354E-4</MEAN_MOTION_DOT><MEAN_MOTION_DDOT>0</MEAN_MOTION_DDOT></tleParameters></data></segment></body></omm>

</ndm>
